LYNK TOWER 4            
1 55034U 23001AB  26068.67743801  .00009160  00000+0  30014-3 0  9997
2 55034  97.3324 128.5940 0010321 112.3386 247.8950 15.31819885176588
STARLINK-35242          
1 65493U 25198B   26068.81770867  .00025043  00000+0  85520-3 0  9994
2 65493  53.1592 270.1225 0000470 293.9025  66.1927 15.30184611 28645
