[{"OBJECT_NAME":"LYNK TOWER 4","OBJECT_ID":"2023-001AB","EPOCH":"2026-03-09T16:15:30.644928","MEAN_MOTION":15.31819885,"ECCENTRICITY":0.00103213,"INCLINATION":97.3324,"RA_OF_ASC_NODE":128.594,"ARG_OF_PERICENTER":112.3386,"MEAN_ANOMALY":247.895,"EPHEMERIS_TYPE":0,"CLASSIFICATION_TYPE":"U","NORAD_CAT_ID":55034,"ELEMENT_SET_NO":999,"REV_AT_EPOCH":17658,"BSTAR":0.00030013829,"MEAN_MOTION_DOT":9.16e-5,"MEAN_MOTION_DDOT":0},{"OBJECT_NAME":"STARLINK-35242","OBJECT_ID":"2025-198B","EPOCH":"2026-03-09T19:37:30.029952","MEAN_MOTION":15.30184611,"ECCENTRICITY":4.7e-5,"INCLINATION":53.1592,"RA_OF_ASC_NODE":270.1225,"ARG_OF_PERICENTER":293.9025,"MEAN_ANOMALY":66.1927,"EPHEMERIS_TYPE":0,"CLASSIFICATION_TYPE":"U","NORAD_CAT_ID":65493,"ELEMENT_SET_NO":999,"REV_AT_EPOCH":2864,"BSTAR":0.00085519556,"MEAN_MOTION_DOT":0.00025043,"MEAN_MOTION_DDOT":0}]
